OBJECT_NAME,OBJECT_ID,EPOCH,MEAN_MOTION,ECCENTRICITY,INCLINATION,RA_OF_ASC_NODE,ARG_OF_PERICENTER,MEAN_ANOMALY,EPHEMERIS_TYPE,CLASSIFICATION_TYPE,NORAD_CAT_ID,ELEMENT_SET_NO,REV_AT_EPOCH,BSTAR,MEAN_MOTION_DOT,MEAN_MOTION_DDOT
ONEWEB-0130,2020-100U,2026-07-13T19:07:10.693920,13.12441549,.0001917,87.8966,345.3619,98.8318,261.3028,0,U,47276,999,26813,.10178E-2,.379E-5,0
ONEWEB-0131,2020-100V,2026-07-13T19:02:18.242880,13.12440440,.0001678,87.8955,345.3769,97.0404,263.0916,0,U,47277,999,26817,.49008E-3,.189E-5,0
ONEWEB-0132,2020-100W,2026-07-13T19:43:45.106176,13.12441471,.0001832,87.8961,345.3747,98.8982,261.2354,0,U,47278,999,26807,-.93708E-3,-.324E-5,0
ONEWEB-0133,2020-100X,2026-07-13T20:07:56.426592,13.12444286,.0001809,87.8973,345.3506,101.0044,259.1288,0,U,47279,999,26823,-.10479E-2,-.364E-5,0
ONEWEB-0134,2020-100Y,2026-07-13T19:24:14.639328,13.12441108,.0002036,87.8974,345.3538,102.8407,257.2949,0,U,47280,999,26820,.33028E-3,.132E-5,0
ONEWEB-0135,2020-100Z,2026-07-13T20:32:33.010368,13.12444114,.000196,87.8964,345.3638,104.9349,255.1997,0,U,47281,999,26823,.32794E-3,.131E-5,0
ONEWEB-0136,2020-100AA,2026-07-13T20:59:23.479584,13.12442268,.0002099,87.8967,345.3437,104.0403,256.0959,0,U,47282,999,26816,.11817E-2,.438E-5,0
ONEWEB-0137,2020-100AB,2026-07-13T19:58:23.051136,13.12443552,.0001817,87.8974,345.3634,91.7984,268.3352,0,U,47283,999,26806,-.11257E-2,-.392E-5,0
ONEWEB-0138,2020-100AC,2026-07-13T10:17:46.584960,13.12441704,.00020402,87.8970,345.4481,99.1706,260.9654,0,U,47284,999,26809,.1169525E-3,.55E-6,0
ONEWEB-0139,2020-100AD,2026-07-13T20:25:26.514912,13.12443540,.0001911,87.8969,345.3503,96.4188,263.7158,0,U,47285,999,26822,-.62621E-4,-.1E-6,0
ONEWEB-0140,2020-100AE,2026-07-13T21:09:08.966592,13.12441626,.0001714,87.8969,345.3354,98.8769,261.2554,0,U,47286,999,26819,.59797E-3,.228E-5,0
ONEWEB-0141,2020-100AF,2026-07-13T20:25:01.668864,13.12444420,.0001879,87.8970,345.3463,87.0644,273.0699,0,U,47287,999,26817,-.49055E-4,-.5E-7,0
ONEWEB-0142,2020-100AG,2026-07-13T20:08:20.935680,13.12444619,.0002196,87.8962,345.3687,89.5801,270.5579,0,U,47288,999,26816,-.10104E-2,-.351E-5,0
ONEWEB-0143,2020-100AH,2026-07-13T20:22:47.385120,13.12444402,.0001851,87.8963,345.3663,94.8828,265.2512,0,U,47289,999,26814,-.77705E-4,-.15E-6,0
ONEWEB-0144,2020-100AJ,2026-07-13T19:41:19.098816,13.12441461,.0002214,87.8972,345.3473,97.7613,262.3767,0,U,47290,999,26806,-.84869E-3,-.293E-5,0
ONEWEB-0145,2020-100AK,2026-07-13T20:49:38.097984,13.12441750,.00018,87.8963,345.3629,90.8210,269.3124,0,U,47291,999,26826,.17897E-2,.657E-5,0
ONEWEB-0146,2020-100AL,2026-07-13T20:44:45.430944,13.12443063,.0001524,87.8966,345.3573,99.3781,260.7520,0,U,47292,999,26817,.11945E-2,.442E-5,0
ONEWEB-0147,2020-100AM,2026-07-13T19:55:56.985024,13.12443064,.0001879,87.8971,345.3462,100.9862,259.1478,0,U,47293,999,26806,-.13118E-2,-.459E-5,0
ONEWEB-0115,2021-025A,2026-07-13T20:06:31.473792,13.13463383,.0001824,87.8980,314.9207,101.8461,258.2873,0,U,48042,999,25709,-.12901E-2,-.458E-5,0
ONEWEB-0152,2021-025B,2026-07-13T20:26:02.685408,13.13473924,.0001831,87.8987,314.9155,101.8148,258.3186,0,U,48043,999,25705,.63693E-3,.245E-5,0
ONEWEB-0153,2021-025C,2026-07-13T19:54:20.357856,13.13469844,.000196,87.8967,314.9221,101.3280,258.8069,0,U,48044,999,25704,-.7101E-3,-.247E-5,0
ONEWEB-0154,2021-025D,2026-07-13T19:49:28.033824,13.13470057,.0001954,87.8986,314.9206,105.9192,254.2152,0,U,48045,999,25700,-.86961E-3,-.305E-5,0
ONEWEB-0116,2021-025E,2026-07-13T20:45:32.541408,13.13469692,.000182,87.8985,314.9101,102.8341,257.2991,0,U,48046,999,25715,.72903E-3,.279E-5,0
ONEWEB-0150,2021-025F,2026-07-13T20:11:24.965088,13.13470384,.0001904,87.8987,314.9121,94.1726,265.9621,0,U,48047,999,25704,-.82E-4,-.17E-6,0
ONEWEB-0107,2021-025G,2026-07-13T20:13:51.496032,13.13472467,.0002127,87.8984,314.9082,97.9073,262.2297,0,U,48048,999,25702,-.40841E-4,-.2E-7,0
ONEWEB-0101,2021-025H,2026-07-13T21:09:55.029888,13.13470317,.0002063,87.8974,314.9134,103.6879,256.4480,0,U,48049,999,25700,-.18447E-3,-.55E-6,0
ONEWEB-0113,2021-025J,2026-07-13T19:42:58.226400,13.13891015,.0001874,87.8979,314.8329,95.2206,264.9137,0,U,48050,999,25710,-.84677E-3,-.298E-5,0
ONEWEB-0112,2021-025K,2026-07-13T20:21:09.991584,13.13469967,.0002171,87.8984,314.9052,103.2603,256.8768,0,U,48051,999,25709,.44015E-3,.173E-5,0
ONEWEB-0156,2021-025L,2026-07-13T18:43:39.158976,13.13472136,.0002005,87.8983,314.9283,97.2118,262.9239,0,U,48052,999,25706,.6786E-3,.261E-5,0
ONEWEB-0161,2021-025M,2026-07-13T19:56:46.658976,13.13469526,.000208,87.8983,314.9195,96.7137,263.4229,0,U,48053,999,25700,-.70076E-3,-.243E-5,0
