ONEWEB-0130             
1 47276U 20100U   26194.79665155  .00000379  00000+0  10178-2 0  9992
2 47276  87.8966 345.3619 0001917  98.8318 261.3028 13.12441549268134
ONEWEB-0131             
1 47277U 20100V   26194.79326670  .00000189  00000+0  49008-3 0  9993
2 47277  87.8955 345.3769 0001678  97.0404 263.0916 13.12440440268178
ONEWEB-0132             
1 47278U 20100W   26194.82204984 -.00000324  00000+0 -93708-3 0  9990
2 47278  87.8961 345.3747 0001832  98.8982 261.2354 13.12441471268074
ONEWEB-0133             
1 47279U 20100X   26194.83884753 -.00000364  00000+0 -10479-2 0  9997
2 47279  87.8973 345.3506 0001809 101.0044 259.1288 13.12444286268238
ONEWEB-0134             
1 47280U 20100Y   26194.80850277  .00000132  00000+0  33028-3 0  9997
2 47280  87.8974 345.3538 0002036 102.8407 257.2949 13.12441108268201
ONEWEB-0135             
1 47281U 20100Z   26194.85593762  .00000131  00000+0  32794-3 0  9994
2 47281  87.8964 345.3638 0001960 104.9349 255.1997 13.12444114268238
ONEWEB-0136             
1 47282U 20100AA  26194.87457731  .00000438  00000+0  11817-2 0  9994
2 47282  87.8967 345.3437 0002099 104.0403 256.0959 13.12442268268163
ONEWEB-0137             
1 47283U 20100AB  26194.83221124 -.00000392  00000+0 -11257-2 0  9995
2 47283  87.8974 345.3634 0001817  91.7984 268.3352 13.12443552268063
ONEWEB-0138             
1 47284U 20100AC  26194.42901140  .00000055  00000+0  11695-3 0  9995
2 47284  87.8970 345.4481 0002040  99.1706 260.9654 13.12441704268097
ONEWEB-0139             
1 47285U 20100AD  26194.85100133 -.00000010  00000+0 -62621-4 0  9995
2 47285  87.8969 345.3503 0001911  96.4188 263.7158 13.12443540268225
ONEWEB-0140             
1 47286U 20100AE  26194.88135378  .00000228  00000+0  59797-3 0  9996
2 47286  87.8969 345.3354 0001714  98.8769 261.2554 13.12441626268194
ONEWEB-0141             
1 47287U 20100AF  26194.85071376 -.00000005  00000+0 -49055-4 0  9993
2 47287  87.8970 345.3463 0001879  87.0644 273.0699 13.12444420268176
ONEWEB-0142             
1 47288U 20100AG  26194.83913120 -.00000351  00000+0 -10104-2 0  9999
2 47288  87.8962 345.3687 0002196  89.5801 270.5579 13.12444619268169
ONEWEB-0143             
1 47289U 20100AH  26194.84915955 -.00000015  00000+0 -77705-4 0  9998
2 47289  87.8963 345.3663 0001851  94.8828 265.2512 13.12444402268146
ONEWEB-0144             
1 47290U 20100AJ  26194.82035994 -.00000293  00000+0 -84869-3 0  9990
2 47290  87.8972 345.3473 0002214  97.7613 262.3767 13.12441461268068
ONEWEB-0145             
1 47291U 20100AK  26194.86780206  .00000657  00000+0  17897-2 0  9996
2 47291  87.8963 345.3629 0001800  90.8210 269.3124 13.12441750268266
ONEWEB-0146             
1 47292U 20100AL  26194.86441471  .00000442  00000+0  11945-2 0  9995
2 47292  87.8966 345.3573 0001524  99.3781 260.7520 13.12443063268172
ONEWEB-0147             
1 47293U 20100AM  26194.83052066 -.00000459  00000+0 -13118-2 0  9995
2 47293  87.8971 345.3462 0001879 100.9862 259.1478 13.12443064268061
ONEWEB-0115             
1 48042U 21025A   26194.83786428 -.00000458  00000+0 -12901-2 0  9999
2 48042  87.8980 314.9207 0001824 101.8461 258.2873 13.13463383257095
ONEWEB-0152             
1 48043U 21025B   26194.85141997  .00000245  00000+0  63693-3 0  9995
2 48043  87.8987 314.9155 0001831 101.8148 258.3186 13.13473924257051
ONEWEB-0153             
1 48044U 21025C   26194.82940229 -.00000247  00000+0 -71010-3 0  9994
2 48044  87.8967 314.9221 0001960 101.3280 258.8069 13.13469844257049
ONEWEB-0154             
1 48045U 21025D   26194.82601891 -.00000305  00000+0 -86961-3 0  9990
2 48045  87.8986 314.9206 0001954 105.9192 254.2152 13.13470057257006
ONEWEB-0116             
1 48046U 21025E   26194.86495997  .00000279  00000+0  72903-3 0  9992
2 48046  87.8985 314.9101 0001820 102.8341 257.2991 13.13469692257157
ONEWEB-0150             
1 48047U 21025F   26194.84126117 -.00000017  00000+0 -82000-4 0  9998
2 48047  87.8987 314.9121 0001904  94.1726 265.9621 13.13470384257049
ONEWEB-0107             
1 48048U 21025G   26194.84295713 -.00000002  00000+0 -40841-4 0  9999
2 48048  87.8984 314.9082 0002127  97.9073 262.2297 13.13472467257028
ONEWEB-0101             
1 48049U 21025H   26194.88188692 -.00000055  00000+0 -18447-3 0  9995
2 48049  87.8974 314.9134 0002063 103.6879 256.4480 13.13470317257003
ONEWEB-0113             
1 48050U 21025J   26194.82150725 -.00000298  00000+0 -84677-3 0  9994
2 48050  87.8979 314.8329 0001874  95.2206 264.9137 13.13891015257100
ONEWEB-0112             
1 48051U 21025K   26194.84803231  .00000173  00000+0  44015-3 0  9996
2 48051  87.8984 314.9052 0002171 103.2603 256.8768 13.13469967257098
ONEWEB-0156             
1 48052U 21025L   26194.78031434  .00000261  00000+0  67860-3 0  9999
2 48052  87.8983 314.9283 0002005  97.2118 262.9239 13.13472136257063
ONEWEB-0161             
1 48053U 21025M   26194.83109559 -.00000243  00000+0 -70076-3 0  9995
2 48053  87.8983 314.9195 0002080  96.7137 263.4229 13.13469526257002
